ONEWEB-0300             
1 49089U 21075Q   25013.62392689 -.00006001  00000+0 -16734-1 0  9991
2 49089  87.8865  94.1166 0001686  95.3274 264.8047 13.12416065167051
ONEWEB-0301             
1 49090U 21075R   25013.45521113  .00000126  00000+0  31439-3 0  9991
2 49090  87.8869  94.1530 0001463 105.6121 254.5169 13.12439944166399
ONEWEB-0302             
1 49091U 21075S   25013.51852181 -.00002326  00000+0 -65054-2 0  9996
2 49091  87.8861  94.1429 0003076 106.0067 254.1401 13.12411024166388
ONEWEB-0304             
1 49092U 21075T   25013.30931300  .00000055  00000+0  10952-3 0  9998
2 49092  87.9101 109.4437 0001861 101.1707 258.9633 13.17651310165111
ONEWEB-0305             
1 49093U 21075U   25013.68224324  .00000059  00000+0  11932-3 0  9994
2 49093  87.9096 109.3510 0001972  91.9040 268.2317 13.17651765165190
ONEWEB-0308             
1 49094U 21075V   25013.51199252  .00000426  00000+0  11499-2 0  9993
2 49094  87.8874  94.1392 0002161 104.5336 255.6033 13.12443185166391
ONEWEB-0309             
1 49095U 21075W   25013.68562329  .00000074  00000+0  15829-3 0  9992
2 49095  87.9100 109.3615 0002230 113.1554 246.9813 13.17646904165169
ONEWEB-0310             
1 49096U 21075X   25013.60282334  .00000310  00000+0  82761-3 0  9992
2 49096  87.8876  94.1476 0001902 106.9108 253.2229 13.12440688167031
